NORAD_CAT_ID,OBJECT_NAME,OBJECT_TYPE,EPOCH,MEAN_MOTION,ECCENTRICITY,INCLINATION,RA_OF_ASC_NODE,ARG_OF_PERICENTER,MEAN_ANOMALY,BSTAR,MEAN_MOTION_DOT,MEAN_MOTION_DDOT,TLE_LINE0,TLE_LINE1,TLE_LINE2,SEMIMAJOR_AXIS,PERIOD,APOGEE,PERIGEE,DECAYED
50170.0,STARLINK-3245,PAYLOAD,2022-09-27 03:32:45,15.0884074,0.0002015,53.2175,143.4244,45.1186,314.9969,2.1679e-05,5.7e-07,0.0,0 STARLINK-3245,1 50170U 21125Q   22270.14775017  .00000057  00000-0  21679-4 0  9990,2 50170  53.2175 143.4244 0002015  45.1186 314.9969 15.08840740 46449,6917.878000000002,95.438,541.137,538.349,0.0
50170.0,STARLINK-3245,PAYLOAD,2022-09-27 19:26:37,15.08838672,0.0001935,53.2173,140.4509,45.4579,314.6571,2.0093e-05,3.2e-07,0.0,0 STARLINK-3245,1 50170U 21125Q   22270.81015322  .00000032  00000-0  20093-4 0  9992,2 50170  53.2173 140.4509 0001935  45.4579 314.6571 15.08838672 46545,6917.884,95.438,541.0880000000002,538.411,0.0
50170.0,STARLINK-3245,PAYLOAD,2022-09-28 08:09:41,15.08846137,0.0001981,53.2174,138.0719,45.2708,314.8445,6.0348e-05,6.73e-06,0.0,0 STARLINK-3245,1 50170U 21125Q   22271.34006744  .00000673  00000-0  60348-4 0  9997,2 50170  53.2174 138.0719 0001981  45.2708 314.8445 15.08846137 46621,6917.861999999999,95.437,541.097,538.356,0.0
50170.0,STARLINK-3245,PAYLOAD,2022-09-28 17:42:01,15.08834219,0.0001963,53.2175,136.2879,46.2209,313.8945,6.0736e-05,6.78e-06,0.0,0 STARLINK-3245,1 50170U 21125Q   22271.73751602  .00000678  00000-0  60736-4 0  9996,2 50170  53.2175 136.2879 0001963  46.2209 313.8945 15.08834219 46202,6917.898,95.438,541.121,538.405,0.0
50170.0,STARLINK-3245,PAYLOAD,2022-09-28 20:52:47,15.08830592,0.0001976,53.2178,135.6933,46.7603,313.3554,0.00011187,1.492e-05,0.0,0 STARLINK-3245,1 50170U 21125Q   22271.86999687  .00001492  00000-0  11187-3 0  9997,2 50170  53.2178 135.6933 0001976  46.7603 313.3554 15.08830592 46702,6917.909000000002,95.438,541.141,538.4069999999998,0.0
50170.0,STARLINK-3245,PAYLOAD,2022-09-29 01:38:57,15.08829683,0.0002064,53.2179,134.7997,25.8559,334.2536,-3.9278e-05,-9.13e-06,0.0,0 STARLINK-3245,1 50170U 21125Q   22272.06872182 -.00000913  00000-0 -39278-4 0  9991,2 50170  53.2179 134.7997 0002064  25.8559 334.2536 15.08829683 46251,6917.9119999999975,95.438,541.205,538.349,0.0
50170.0,STARLINK-3245,PAYLOAD,2022-09-29 08:00:30,15.08831909,0.0002002,53.2175,133.6114,47.15600000000001,312.9601,-4.566600000000001e-05,-1.015e-05,0.0,0 STARLINK-3245,1 50170U 21125Q   22272.33368391 -.00001015  00000-0 -45666-4 0  9995,2 50170  53.2175 133.6114 0002002  47.1560 312.9601 15.08831909 46774,6917.905,95.438,541.155,538.385,0.0
50170.0,STARLINK-3245,PAYLOAD,2022-09-29 20:43:35,15.08838016,0.0002032,53.2177,131.2323,47.9058,312.2106,4.7076e-06,-2.13e-06,0.0,0 STARLINK-3245,1 50170U 21125Q   22272.86360091 -.00000213  00000-0  47076-5 0  9998,2 50170  53.2177 131.2323 0002032  47.9058 312.2106 15.08838016 46853,6917.886,95.438,541.1569999999998,538.346,0.0
50170.0,STARLINK-3245,PAYLOAD,2022-09-29 23:54:21,15.08841039,0.0002029999999999,53.2175,130.6376,48.1109,312.0056,3.4034e-05,2.53e-06,0.0,0 STARLINK-3245,1 50170U 21125Q   22272.99607846  .00000253  00000-0  34034-4 0  9996,2 50170  53.2175 130.6376 0002030  48.1109 312.0056 15.08841039 46390,6917.877,95.437,541.1469999999998,538.3380000000002,0.0
50170.0,STARLINK-3245,PAYLOAD,2022-09-30 07:51:16,15.08846352,0.0002041,53.2174,129.151,48.3875,311.7291,6.3291e-05,7.19e-06,0.0,0 STARLINK-3245,1 50170U 21125Q   22273.32727456  .00000719  00000-0  63291-4 0  9998,2 50170  53.2174 129.1510 0002041  48.3875 311.7291 15.08846352 46925,6917.861,95.437,541.138,538.314,0.0
50170.0,STARLINK-3245,PAYLOAD,2022-09-30 14:12:48,15.08850072,0.0002082,53.2174,127.9616,49.1475,310.9697,8.3015e-05,1.034e-05,0.0,0 STARLINK-3245,1 50170U 21125Q   22273.59223139  .00001034  00000-0  83015-4 0  9993,2 50170  53.2174 127.9616 0002082  49.1475 310.9697 15.08850072 46484,6917.85,95.437,541.155,538.274,0.0
50170.0,STARLINK-3245,PAYLOAD,2022-09-30 20:34:20,15.08854236,0.0002021999999999,53.2175,126.7725,48.566,311.5506,0.00015574,2.192e-05,0.0,0 STARLINK-3245,1 50170U 21125Q   22273.85718577  .00002192  00000-0  15574-3 0  9997,2 50170  53.2175 126.7725 0002022  48.5660 311.5506 15.08854236 47007,6917.837,95.437,541.101,538.303,0.0
50170.0,STARLINK-3245,PAYLOAD,2022-10-01 01:20:29,15.08866272,0.0001763,53.2187,125.8791,59.4704,300.6462,0.00024666,3.642e-05,0.0,0 STARLINK-3245,1 50170U 21125Q   22274.05589345  .00003642  00000-0  24666-3 0  9992,2 50170  53.2187 125.8791 0001763  59.4704 300.6462 15.08866272 46556,6917.8,95.436,540.885,538.445,0.0
50170.0,STARLINK-3245,PAYLOAD,2022-10-01 07:42:01,15.08863434,0.0001911,53.2175,124.6903,52.885,307.2317,0.00036248,5.489e-05,0.0,0 STARLINK-3245,1 50170U 21125Q   22274.32085044  .00005489  00000-0  36248-3 0  9999,2 50170  53.2175 124.6903 0001911  52.8850 307.2317 15.08863434 47076,6917.809,95.436,540.996,538.352,0.0
50170.0,STARLINK-3245,PAYLOAD,2022-10-01 18:49:45,15.08838467,0.000194,53.2176,122.6095,42.8532,317.2611,8.0846e-05,9.99e-06,0.0,0 STARLINK-3245,1 50170U 21125Q   22274.78455313  .00000999  00000-0  80846-4 0  9994,2 50170  53.2176 122.6095 0001940  42.8532 317.2611 15.08838467 46665,6917.885,95.438,541.092,538.408,0.0
50170.0,STARLINK-3245,PAYLOAD,2022-10-01 20:25:08,15.0883948,0.0001903,53.2176,122.3119,41.3592,318.7544,4.1287e-05,3.69e-06,0.0,0 STARLINK-3245,1 50170U 21125Q   22274.85079355  .00000369  00000-0  41287-4 0  9997,2 50170  53.2176 122.3119 0001903  41.3592 318.7544 15.08839480 47150,6917.882,95.438,541.063,538.431,0.0
50170.0,STARLINK-3245,PAYLOAD,2022-10-01 23:35:55,15.08834601,0.000197,53.2177,121.7178,44.4408,315.6742,7.6165e-06,-1.67e-06,0.0,0 STARLINK-3245,1 50170U 21125Q   22274.98327837 -.00000167  00000-0  76165-5 0  9993,2 50170  53.2177 121.7178 0001970  44.4408 315.6742 15.08834601 46697,6917.897,95.438,541.125,538.399,0.0
50170.0,STARLINK-3245,PAYLOAD,2022-10-02 20:15:55,15.08844565,0.0002003,53.2166,117.8514,46.883,313.2329,1.3315e-05,-7.6e-07,0.0,0 STARLINK-3245,1 50170U 21125Q   22275.84439047 -.00000076  00000-0  13315-4 0  9992,2 50170  53.2166 117.8514 0002003  46.8830 313.2329 15.08844565 46828,6917.866,95.437,541.117,538.346,0.0
50170.0,STARLINK-3245,PAYLOAD,2022-10-02 23:26:41,15.08846688,0.0001994,53.2171,117.2569,47.4583,312.6577,2.9944e-05,1.88e-06,0.0,0 STARLINK-3245,1 50170U 21125Q   22275.97686883  .00000188  00000-0  29944-4 0  9996,2 50170  53.2171 117.2569 0001994  47.4583 312.6577 15.08846688 47320,6917.86,95.437,541.104,538.346,0.0
50170.0,STARLINK-3245,PAYLOAD,2022-10-04 00:52:53,15.08820491,0.0001986,53.2168,112.4984,44.5723,315.5429,3.2562e-06,-2.36e-06,0.0,0 STARLINK-3245,1 50170U 21125Q   22277.03672891 -.00000236  00000-0  32562-5 0  9995,2 50170  53.2168 112.4984 0001986  44.5723 315.5429 15.08820491 47006,6917.94,95.439,541.179,538.431,0.0
50170.0,STARLINK-3245,PAYLOAD,2022-10-04 05:39:03,15.0881856,0.0001972,53.2165,111.6065,44.8781,315.2371,5.4168e-05,5.74e-06,0.0,0 STARLINK-3245,1 50170U 21125Q   22277.23545348  .00000574  00000-0  54168-4 0  9992,2 50170  53.2165 111.6065 0001972  44.8781 315.2371 15.08818560 47519,6917.946,95.439,541.175,538.447,0.0
50170.0,STARLINK-3245,PAYLOAD,2022-10-04 19:57:31,15.08828886,0.0001996,53.2164,108.9303,42.7834,317.3313,5.7713e-05,6.3e-06,0.0,0 STARLINK-3245,1 50170U 21125Q   22277.83161432  .00000630  00000-0  57713-4 0  9998,2 50170  53.2164 108.9303 0001996  42.7834 317.3313 15.08828886 47605,6917.9140000000025,95.438,541.16,538.399,0.0
50170.0,STARLINK-3245,PAYLOAD,2022-10-05 11:51:22,15.08837401,0.000214,53.2173,105.9565,43.1416,316.9744,0.00024466,3.607e-05,0.0,0 STARLINK-3245,1 50170U 21125Q   22278.49401455  .00003607  00000-0  24466-3 0  9998,2 50170  53.2173 105.9565 0002140  43.1416 316.9744 15.08837401 47702,6917.888000000001,95.438,541.234,538.273,0.0
50170.0,STARLINK-3245,PAYLOAD,2022-10-05 19:48:18,15.08843639,0.000214,53.2172,104.4699,44.3343,315.782,0.00041432,6.313e-05,0.0,0 STARLINK-3245,1 50170U 21125Q   22278.82521223  .00006313  00000-0  41432-3 0  9990,2 50170  53.2172 104.4699 0002140  44.3343 315.7820 15.08843639 47752,6917.869000000002,95.437,541.215,538.254,0.0
50170.0,STARLINK-3245,PAYLOAD,2022-10-06 05:20:37,15.08840113,0.0002102,53.2172,102.6856,43.5691,316.5466,0.00029588,4.424e-05,0.0,0 STARLINK-3245,1 50170U 21125Q   22279.22265590  .00004424  00000-0  29588-3 0  9996,2 50170  53.2172 102.6856 0002102  43.5691 316.5466 15.08840113 47818,6917.88,95.438,541.1990000000002,538.2909999999998,0.0
50170.0,STARLINK-3245,PAYLOAD,2022-10-06 19:39:04,15.0885294,0.000223,53.2165,100.0078,40.5937,319.5221,0.00022863,3.354e-05,0.0,0 STARLINK-3245,1 50170U 21125Q   22279.81880779  .00003354  00000-0  22863-3 0  9993,2 50170  53.2165 100.0078 0002230  40.5937 319.5221 15.08852940 47903,6917.840999999999,95.437,541.249,538.163,0.0
50170.0,STARLINK-3245,PAYLOAD,2022-10-07 05:11:23,15.08852237,0.0002151999999999,53.2169,98.2258,45.3327,314.784,0.0001998,2.894e-05,0.0,0 STARLINK-3245,1 50170U 21125Q   22280.21624622  .00002894  00000-0  19980-3 0  9996,2 50170  53.2169  98.2258 0002152  45.3327 314.7840 15.08852237 47963,6917.843000000003,95.437,541.197,538.219,0.0
50170.0,STARLINK-3245,PAYLOAD,2022-10-07 19:29:51,15.08847025,0.000215,53.217,95.5492,44.9881,315.1285,9.8201e-05,1.275e-05,0.0,0 STARLINK-3245,1 50170U 21125Q   22280.81240427  .00001275  00000-0  98201-4 0  9995,2 50170  53.2170  95.5492 0002150  44.9881 315.1285 15.08847025 47577,6917.859,95.437,541.211,538.237,0.0
50170.0,STARLINK-3245,PAYLOAD,2022-10-08 11:23:43,15.08841502,0.0002166999999999,53.2169,92.5751,44.9528,315.1639,-3.3228e-05,-8.17e-06,0.0,0 STARLINK-3245,1 50170U 21125Q   22281.47480527 -.00000817  00000-0 -33228-4 0  9996,2 50170  53.2169  92.5751 0002167  44.9528 315.1639 15.08841502 47674,6917.876,95.437,541.24,538.242,0.0
